COMMENT,ORIGINATOR,NORAD_CAT_ID,OBJECT_NAME,OBJECT_TYPE,CLASSIFICATION_TYPE,INTLDES,EPOCH,EPOCH_MICROSECONDS,MEAN_MOTION,ECCENTRICITY,INCLINATION,RA_OF_ASC_NODE,ARG_OF_PERICENTER,MEAN_ANOMALY,EPHEMERIS_TYPE,ELEMENT_SET_NO,REV_AT_EPOCH,BSTAR,MEAN_MOTION_DOT,MEAN_MOTION_DDOT,FILE,TLE_LINE0,TLE_LINE1,TLE_LINE2,OBJECT_ID,OBJECT_NUMBER,SEMIMAJOR_AXIS,PERIOD,APOGEE,PERIGEE,DECAYED
"GENERATED VIA SPACETRACK.ORG API","18 SPCS","55099","SPACEBEE-156","PAYLOAD","U","23001CU","2024-05-15 17:38:42","756576","15.45000208","0.0009426","97.4213","202.57","251.1155","108.9072","0","999","7608","0.002011","0.00095904","0","4318411","0 SPACEBEE-156","1 55099U 23001CU  24136.73521709  .00095904  00000-0  20110-2 0  9997","2 55099  97.4213 202.5700 0009426 251.1155 108.9072 15.45000208 76086","2023-001CU","55099","6809.514","93.204","437.798","424.961","0"
"GENERATED VIA SPACETRACK.ORG API","18 SPCS","55099","SPACEBEE-156","PAYLOAD","U","23001CU","2024-05-15 17:38:42","756576","15.45000208","0.0009426","97.4213","202.57","251.1155","108.9072","0","999","7608","0.002011","0.00095904","0","4318417","0 SPACEBEE-156","1 55099U 23001CU  24136.73521709  .00095904  00000-0  20110-2 0  9997","2 55099  97.4213 202.5700 0009426 251.1155 108.9072 15.45000208 76086","2023-001CU","55099","6809.514","93.204","437.798","424.961","0"
"GENERATED VIA SPACETRACK.ORG API","18 SPCS","55099","SPACEBEE-156","PAYLOAD","U","23001CU","2024-05-16 02:58:17","217696","15.4508335","0.0009381","97.4214","202.9663","248.4376","111.5873","0","999","7614","0.002195","0.00105104","0","4319073","0 SPACEBEE-156","1 55099U 23001CU  24137.12381039  .00105104  00000-0  21950-2 0  9998","2 55099  97.4214 202.9663 0009381 248.4376 111.5873 15.45083350 76148","2023-001CU","55099","6809.270","93.199","437.523","424.747","0"
"GENERATED VIA SPACETRACK.ORG API","18 SPCS","55099","SPACEBEE-156","PAYLOAD","U","23001CU","2024-05-16 02:58:17","217696","15.4508335","0.0009381","97.4214","202.9663","248.4376","111.5873","0","999","7614","0.002195","0.00105104","0","4319123","0 SPACEBEE-156","1 55099U 23001CU  24137.12381039  .00105104  00000-0  21950-2 0  9998","2 55099  97.4214 202.9663 0009381 248.4376 111.5873 15.45083350 76148","2023-001CU","55099","6809.270","93.199","437.523","424.747","0"
"GENERATED VIA SPACETRACK.ORG API","18 SPCS","55099","SPACEBEE-156","PAYLOAD","U","23001CU","2024-05-17 03:50:19","654080","15.45319199","0.0009485","97.4213","204.025","243.5039","116.5238","0","999","7630","0.0018261","0.0008794","0","4319622","0 SPACEBEE-156","1 55099U 23001CU  24138.15994970  .00087940  00000-0  18261-2 0  9994","2 55099  97.4213 204.0250 0009485 243.5039 116.5238 15.45319199 76300","2023-001CU","55099","6808.577","93.185","436.900","423.984","0"
"GENERATED VIA SPACETRACK.ORG API","18 SPCS","55099","SPACEBEE-156","PAYLOAD","U","23001CU","2024-05-17 03:50:19","654080","15.45319199","0.0009485","97.4213","204.025","243.5039","116.5238","0","999","7630","0.0018261","0.0008794","0","4320024","0 SPACEBEE-156","1 55099U 23001CU  24138.15994970  .00087940  00000-0  18261-2 0  9994","2 55099  97.4213 204.0250 0009485 243.5039 116.5238 15.45319199 76300","2023-001CU","55099","6808.577","93.185","436.900","423.984","0"
"GENERATED VIA SPACETRACK.ORG API","18 SPCS","55099","SPACEBEE-156","PAYLOAD","U","23001CU","2024-05-18 03:08:54","352896","15.45545777","0.0009612","97.4213","205.0183","241.1559","118.8725","0","999","7645","0.0021259","0.00103392","0","4320725","0 SPACEBEE-156","1 55099U 23001CU  24139.13118464  .00103392  00000-0  21259-2 0  9990","2 55099  97.4213 205.0183 0009612 241.1559 118.8725 15.45545777 76454","2023-001CU","55099","6807.912","93.171","436.321","423.233","0"
"GENERATED VIA SPACETRACK.ORG API","18 SPCS","55099","SPACEBEE-156","PAYLOAD","U","23001CU","2024-05-18 03:08:54","352896","15.45545777","0.0009612","97.4213","205.0183","241.1559","118.8725","0","999","7645","0.0021259","0.00103392","0","4321083","0 SPACEBEE-156","1 55099U 23001CU  24139.13118464  .00103392  00000-0  21259-2 0  9990","2 55099  97.4213 205.0183 0009612 241.1559 118.8725 15.45545777 76454","2023-001CU","55099","6807.912","93.171","436.321","423.233","0"
"GENERATED VIA SPACETRACK.ORG API","18 SPCS","55099","SPACEBEE-156","PAYLOAD","U","23001CU","2024-05-18 17:07:56","527680","15.45709827","0.0009629","97.4217","205.6151","240.2059","119.8233","0","999","7654","0.0022482","0.00110052","0","4321425","0 SPACEBEE-156","1 55099U 23001CU  24139.71384870  .00110052  00000-0  22482-2 0  9990","2 55099  97.4217 205.6151 0009629 240.2059 119.8233 15.45709827 76545","2023-001CU","55099","6807.430","93.161","435.850","422.740","0"
"GENERATED VIA SPACETRACK.ORG API","18 SPCS","55099","SPACEBEE-156","PAYLOAD","U","23001CU","2024-05-18 17:07:56","527680","15.45709827","0.0009629","97.4217","205.6151","240.2059","119.8233","0","999","7654","0.0022482","0.00110052","0","4321432","0 SPACEBEE-156","1 55099U 23001CU  24139.71384870  .00110052  00000-0  22482-2 0  9990","2 55099  97.4217 205.6151 0009629 240.2059 119.8233 15.45709827 76545","2023-001CU","55099","6807.430","93.161","435.850","422.740","0"
"GENERATED VIA SPACETRACK.ORG API","18 SPCS","55099","SPACEBEE-156","PAYLOAD","U","23001CU","2024-05-19 04:00:28","253088","15.45815051","0.0009701","97.4216","206.0783","238.0432","121.9874","0","999","7661","0.0018307","0.00089692","0","4321746","0 SPACEBEE-156","1 55099U 23001CU  24140.16699367  .00089692  00000-0  18307-2 0  9997","2 55099  97.4216 206.0783 0009701 238.0432 121.9874 15.45815051 76611","2023-001CU","55099","6807.121","93.155","435.590","422.383","0"
"GENERATED VIA SPACETRACK.ORG API","18 SPCS","55099","SPACEBEE-156","PAYLOAD","U","23001CU","2024-05-19 17:59:22","627680","15.45939677","0.0009752","97.4215","206.6748","237.0405","122.9907","0","999","7670","0.0021025","0.00103645","0","4322067","0 SPACEBEE-156","1 55099U 23001CU  24140.74956745  .00103645  00000-0  21025-2 0  9993","2 55099  97.4215 206.6748 0009752 237.0405 122.9907 15.45939677 76701","2023-001CU","55099","6806.755","93.147","435.258","421.982","0"
"GENERATED VIA SPACETRACK.ORG API","18 SPCS","55099","SPACEBEE-156","PAYLOAD","U","23001CU","2024-05-20 03:18:36","554976","15.46028457","0.0009857","97.4214","207.0718","235.8126","124.2189","0","999","7676","0.0022406","0.00110901","0","4322644","0 SPACEBEE-156","1 55099U 23001CU  24141.13792309  .00110901  00000-0  22406-2 0  9998","2 55099  97.4214 207.0718 0009857 235.8126 124.2189 15.46028457 76763","2023-001CU","55099","6806.495","93.142","435.069","421.651","0"
"GENERATED VIA SPACETRACK.ORG API","18 SPCS","55099","SPACEBEE-156","PAYLOAD","U","23001CU","2024-05-20 03:18:36","554976","15.46028457","0.0009857","97.4214","207.0718","235.8126","124.2189","0","999","7676","0.0022406","0.00110901","0","4322688","0 SPACEBEE-156","1 55099U 23001CU  24141.13792309  .00110901  00000-0  22406-2 0  9998","2 55099  97.4214 207.0718 0009857 235.8126 124.2189 15.46028457 76763","2023-001CU","55099","6806.495","93.142","435.069","421.651","0"
"GENERATED VIA SPACETRACK.ORG API","18 SPCS","55099","SPACEBEE-156","PAYLOAD","U","23001CU","2024-05-20 20:23:47","643936","15.4616738","0.0009935","97.4216","207.8005","233.8513","126.1818","0","999","7687","0.0019794","0.00098274","0","4322975","0 SPACEBEE-156","1 55099U 23001CU  24141.84985699  .00098274  00000-0  19794-2 0  9996","2 55099  97.4216 207.8005 0009935 233.8513 126.1818 15.46167380 76878","2023-001CU","55099","6806.087","93.134","434.714","421.190","0"
"GENERATED VIA SPACETRACK.ORG API","18 SPCS","55099","SPACEBEE-156","PAYLOAD","U","23001CU","2024-05-21 04:09:45","391392","15.46233829","0.0009912","97.4215","208.1321","232.8035","127.231","0","999","7692","0.0019069","0.00094845","0","4323618","0 SPACEBEE-156","1 55099U 23001CU  24142.17344203  .00094845  00000-0  19069-2 0  9998","2 55099  97.4215 208.1321 0009912 232.8035 127.2310 15.46233829 76922","2023-001CU","55099","6805.892","93.130","434.503","421.011","0"
"GENERATED VIA SPACETRACK.ORG API","18 SPCS","55099","SPACEBEE-156","PAYLOAD","U","23001CU","2024-05-21 16:35:15","539712","15.46324223","0.0009916","97.4212","208.6626","231.8075","128.2281","0","999","7700","0.0017659","0.00088022","0","4323884","0 SPACEBEE-156","1 55099U 23001CU  24142.69115208  .00088022  00000-0  17659-2 0  9999","2 55099  97.4212 208.6626 0009916 231.8075 128.2281 15.46324223 77006","2023-001CU","55099","6805.627","93.124","434.240","420.743","0"
"GENERATED VIA SPACETRACK.ORG API","18 SPCS","55099","SPACEBEE-156","PAYLOAD","U","23001CU","2024-05-22 03:27:32","3424","15.4641896","0.0010044","97.4212","209.1259","230.0585","129.9783","0","999","7707","0.0019523","0.00097764","0","4324187","0 SPACEBEE-156","1 55099U 23001CU  24143.14412041  .00097764  00000-0  19523-2 0  9990","2 55099  97.4212 209.1259 0010044 230.0585 129.9783 15.46418960 77079","2023-001CU","55099","6805.349","93.118","434.049","420.379","0"
"GENERATED VIA SPACETRACK.ORG API","18 SPCS","55099","SPACEBEE-156","PAYLOAD","U","23001CU","2024-05-22 03:27:32","3424","15.4641896","0.0010044","97.4212","209.1259","230.0585","129.9783","0","999","7707","0.0019523","0.00097764","0","4324498","0 SPACEBEE-156","1 55099U 23001CU  24143.14412041  .00097764  00000-0  19523-2 0  9990","2 55099  97.4212 209.1259 0010044 230.0585 129.9783 15.46418960 77079","2023-001CU","55099","6805.349","93.118","434.049","420.379","0"
"GENERATED VIA SPACETRACK.ORG API","18 SPCS","55099","SPACEBEE-156","PAYLOAD","U","23001CU","2024-05-23 04:18:18","765504","15.46602914","0.001018","97.4212","210.1863","226.1827","133.8582","0","999","7723","0.0015371","0.00077244","0","4325042","0 SPACEBEE-156","1 55099U 23001CU  24144.17938386  .00077244  00000-0  15371-2 0  9997","2 55099  97.4212 210.1863 0010180 226.1827 133.8582 15.46602914 77231","2023-001CU","55099","6804.809","93.107","433.602","419.747","0"
